OBJECT_NAME,OBJECT_ID,EPOCH,MEAN_MOTION,ECCENTRICITY,INCLINATION,RA_OF_ASC_NODE,ARG_OF_PERICENTER,MEAN_ANOMALY,EPHEMERIS_TYPE,CLASSIFICATION_TYPE,NORAD_CAT_ID,ELEMENT_SET_NO,REV_AT_EPOCH,BSTAR,MEAN_MOTION_DOT,MEAN_MOTION_DDOT
INTELSAT 902 (IS-902),2001-039A,2026-07-11T11:36:37.992384,1.00271111,.00044247,6.1764,71.4854,35.9335,306.0222,0,U,26900,999,9093,0,-.284E-5,0
INTELSAT 904 (IS-904),2002-007A,2026-07-11T09:59:11.415840,1.00271577,.00054002,6.9777,68.8900,23.3585,315.4057,0,U,27380,999,5200,0,-.226E-5,0
DIRECTV 5 (TEMPO 1),2002-023A,2026-07-11T14:44:45.087072,1.00271016,.0003015,4.9374,75.0044,41.5746,284.0173,0,U,27426,999,8836,0,-.57E-6,0
GALAXY 3C (G-3C),2002-030A,2026-07-11T19:57:03.396384,1.00270776,.0001493,3.7944,77.6555,37.9015,18.6118,0,U,27445,999,4674,0,-.152E-5,0
INTELSAT 906 (IS-906),2002-041A,2026-07-11T18:59:46.387104,1.00272456,.0003936,5.8629,72.6183,20.5693,185.5837,0,U,27513,999,8727,0,.11E-6,0
GALAXY 13 (HORIZONS-1),2003-044A,2026-07-11T17:58:44.203872,1.00269804,.0002205,1.4809,83.5516,22.7246,303.0523,0,U,27954,999,4681,0,.136E-5,0
DIRECTV 8,2005-019A,2026-07-11T16:24:35.711424,1.00271011,.0003024,0.0189,74.7854,50.6733,291.2238,0,U,28659,999,7731,0,.6E-7,0
GALAXY 28 (G-28),2005-022A,2026-07-11T20:16:18.377760,1.00271019,.0002297,3.3602,78.6315,29.4253,98.6573,0,U,28702,999,5222,0,-.2E-5,0
GALAXY 16 (G-16),2006-023A,2026-07-11T19:55:56.004384,1.00271248,.0002438,0.0362,113.8531,6.5926,9.2682,0,U,29236,999,7322,0,-.123E-5,0
DIRECTV 9S,2006-043A,2026-07-11T19:55:18.562944,1.00270953,.0004985,2.4816,80.6048,32.6674,14.0852,0,U,29494,999,5163,0,-.112E-5,0
GALAXY 17 (G-17),2007-016B,2026-07-11T19:59:48.131808,1.00270656,.0003548,3.0313,79.5891,33.0461,32.0248,0,U,31307,999,7005,0,-.205E-5,0
INTELSAT 11 (IS-11),2007-044B,2026-07-11T20:29:02.158080,0.99051085,.0004061,3.6269,78.3701,100.1995,75.7163,0,U,32253,999,6869,0,-.76E-6,0
HORIZONS-2,2007-063B,2026-07-11T20:03:02.822112,1.00270275,.0003543,2.6629,80.3230,18.2184,58.1600,0,U,32388,999,6806,0,-.252E-5,0
DIRECTV 11,2008-013A,2026-07-11T14:47:52.289088,1.00272228,.0000153,0.0131,264.0793,268.8149,239.4093,0,U,32729,999,4583,0,-.12E-5,0
GALAXY 18 (G-18),2008-024A,2026-07-11T18:06:20.974752,1.00270290,.0002801,0.0279,47.9198,78.7436,311.5850,0,U,32951,999,4609,0,0,0
GALAXY 19 (G-19),2008-045A,2026-07-11T19:56:18.468384,1.00272153,.0002327,0.0536,244.6907,235.6584,11.4535,0,U,33376,999,6515,0,-.135E-5,0
FM-5,2009-034A,2026-07-11T19:59:33.156096,1.00271678,.0000614,0.0375,275.4581,56.6820,171.3190,0,U,35493,999,4689,0,-.196E-5,0
INTELSAT 14 (IS-14),2009-064A,2026-07-11T20:11:17.030976,1.00271124,.0002222,0.0163,31.5081,84.4682,71.5991,0,U,36097,999,6085,0,-.269E-5,0
INTELSAT 15 (IS-15),2009-067A,2026-07-11T20:48:27.484992,1.00271202,.0002098,0.0142,58.6359,60.4168,207.9824,0,U,36106,999,4147,0,-.181E-5,0
DIRECTV 12,2009-075A,2026-07-11T19:54:41.123232,1.00271167,.0000386,0.0204,206.9725,17.1044,261.5921,0,U,36131,999,4680,0,-.99E-6,0
INTELSAT 16 (IS-16),2010-006A,2026-07-11T20:02:25.379808,1.00270944,.0002275,0.0114,32.2852,103.4470,18.4078,0,U,36397,999,5990,0,-.24E-5,0
INTELSAT 17 (IS-17),2010-065B,2026-07-11T21:20:42.883872,1.00271973,.0002648,0.0194,92.2512,24.0857,199.6252,0,U,37238,999,5349,0,.2E-7,0
INTELSAT 28 (IS-28),2011-016A,2026-07-11T18:32:25.975104,1.00271817,.0003677,1.8670,82.3161,38.6451,55.1010,0,U,37392,999,5353,0,-.222E-5,0
INTELSAT 18 (IS-18),2011-056A,2026-07-11T17:50:07.531008,1.00272881,.0001721,0.0213,296.1403,191.8031,249.2368,0,U,37834,999,5405,0,.58E-6,0
INTELSAT 22 (IS-22),2012-011A,2026-07-11T21:25:09.640416,1.00271201,.0001931,0.0398,69.1286,63.5731,190.4702,0,U,38098,999,743,0,0,0
INTELSAT 19 (IS-19),2012-030A,2026-07-11T17:46:07.911840,1.00271070,.0003072,0.0147,39.7279,84.6687,237.7768,0,U,38356,999,5069,0,-.52E-6,0
INTELSAT 20 (IS-20),2012-043A,2026-07-11T21:38:38.792832,1.00279880,.0003753,0.0122,62.5753,345.9835,274.4518,0,U,38740,999,5099,0,-.23E-6,0
